{"_default": { "4": {"norad_id": "44387", "name": "METEOR M2-2", "tle1": "1 44387U 19038A   26163.88940985 -.00000186  00000-0 -60749-4 0  9993", "tle2": "2 44387  98.9139 151.1109 0002181  54.8911 305.2471 14.24363912360685", "object_type": "PAYLOAD", "criticality_score": 9.0, "last_updated": "2026-06-13T11:16:06.819600+00:00", "maneuver_count": 0, "owner": "CIS"}, "41": {"norad_id": "44339", "name": "PROX-1", "tle1": "1 44339U 19036A   26162.63473252  .00012207  00000-0  11914-2 0  9991", "tle2": "2 44339  23.9924 151.3410 0005369 331.4108  28.6097 14.90479846372648", "object_type": "PAYLOAD", "criticality_score": 9.0, "last_updated": "2026-06-13T11:16:06.819600+00:00", "maneuver_count": 0, "owner": "US"}, "102": {"norad_id": "44881", "name": "OBJECT C", "tle1": "1 44881U 19093C   26163.80404896  .00000345  00000-0  44917-4 0  9995", "tle2": "2 44881  97.7533 236.1427 0014972  99.7681 260.5226 14.86510113350763", "object_type": "PAYLOAD", "criticality_score": 9.0, "last_updated": "2026-06-13T11:16:06.819600+00:00", "maneuver_count": 0, "owner": "PRC"}, "131": {"norad_id": "44530", "name": "TAURUS-1", "tle1": "1 44530U 19059C   26163.89259086  .00006990  00000-0  11198-2 0  9991", "tle2": "2 44530  98.6406 328.4547 0007614 331.7865  28.2927 14.72056763358013", "object_type": "PAYLOAD", "criticality_score": 9.0, "last_updated": "2026-06-13T11:16:06.819600+00:00", "maneuver_count": 0, "owner": "PRC"}, "132": {"norad_id": "44350", "name": "FORMOSAT7-4/COSMIC2-4", "tle1": "1 44350U 19036M   26163.20189209  .00002565  00000-0  19447-3 0  9990", "tle2": "2 44350  23.9972 128.1073 0001428 125.9789 234.0845 14.96478445383325", "object_type": "PAYLOAD", "criticality_score": 9.0, "last_updated": "2026-06-13T11:16:06.819600+00:00", "maneuver_count": 0, "owner": "ROC"}, "168": {"norad_id": "44694", "name": "ATLAS 5 CENTAUR DEB", "tle1": "1 44694U 18079BG  26162.63008345 -.00000061  00000-0  00000-0 0  9996", "tle2": "2 44694  13.6170  39.7318 4722220 298.3338  22.1971  1.77426584 46469", "object_type": "DEBRIS", "criticality_score": 9.0, "last_updated": "2026-06-13T11:16:06.819600+00:00", "maneuver_count": 0, "owner": "US"}, "186": {"norad_id": "44804", "name": "CARTOSAT 3", "tle1": "1 44804U 19081A   26163.81035565  .00003189  00000-0  15426-3 0  9992", "tle2": "2 44804  97.4313 225.7472 0012783 162.4616 197.7063 15.19249922362801", "object_type": "PAYLOAD", "criticality_score": 9.0, "last_updated": "2026-06-13T11:16:06.819600+00:00", "maneuver_count": 0, "owner": "IND"}, "237": {"norad_id": "44499", "name": "GLOBAL-4", "tle1": "1 44499U 19054E   26162.58552106  .00049298  00000-0  51261-3 0  9998", "tle2": "2 44499  45.0063 268.7103 0006454 304.2226  55.8059 15.63869122379481", "object_type": "PAYLOAD", "criticality_score": 9.0, "last_updated": "2026-06-13T11:16:06.819600+00:00", "maneuver_count": 0, "owner": "US"}, "240": {"norad_id": "44343", "name": "FORMOSAT7-3/COSMIC2-3", "tle1": "1 44343U 19036E   26163.82190625  .00004239  00000-0  23490-3 0  9997", "tle2": "2 44343  23.9978 208.5879 0000559 183.9133 176.1366 15.09774393382588", "object_type": "PAYLOAD", "criticality_score": 9.0, "last_updated": "2026-06-13T11:16:06.819600+00:00", "maneuver_count": 0, "owner": "ROC"}, "241": {"norad_id": "44349", "name": "FORMOSAT7-1/COSMIC2-1", "tle1": "1 44349U 19036L   26162.44597742  .00002269  00000-0  16902-3 0  9992", "tle2": "2 44349  23.9984  71.0959 0000999 106.0435 254.0176 14.96480132383791", "object_type": "PAYLOAD", "criticality_score": 9.0, "last_updated": "2026-06-13T11:16:06.819600+00:00", "maneuver_count": 0, "owner": "ROC"}, "242": {"norad_id": "44351", "name": "FORMOSAT7-2/COSMIC2-2", "tle1": "1 44351U 19036N   26161.75730551  .00002096  00000-0  15417-3 0  9993", "tle2": "2 44351  23.9969 192.1641 0001022 105.9152 254.1461 14.96473915382622", "object_type": "PAYLOAD", "criticality_score": 9.0, "last_updated": "2026-06-13T11:16:06.819600+00:00", "maneuver_count": 0, "owner": "ROC"}, "243": {"norad_id": "44353", "name": "FORMOSAT7-6/COSMIC2-6", "tle1": "1 44353U 19036Q   26163.22404013  .00002808  00000-0  21528-3 0  9991", "tle2": "2 44353  23.9994   3.0891 0001335  49.0665 310.9951 14.96490671381074", "object_type": "PAYLOAD", "criticality_score": 9.0, "last_updated": "2026-06-13T11:16:06.819600+00:00", "maneuver_count": 0, "owner": "ROC"}, "244": {"norad_id": "44358", "name": "FORMOSAT7-5/COSMIC2-5", "tle1": "1 44358U 19036V   26163.06796295  .00002495  00000-0  18840-3 0  9999", "tle2": "2 44358  23.9991 302.8946 0000695  95.1246 264.9334 14.96496673381589", "object_type": "PAYLOAD", "criticality_score": 9.0, "last_updated": "2026-06-13T11:16:06.819600+00:00", "maneuver_count": 0, "owner": "ROC"}, "322": {"norad_id": "44316", "name": "OBJECT G", "tle1": "1 44316U 19032G   26163.81685841  .00011095  00000-0  41947-3 0  9996", "tle2": "2 44316  44.9723  84.7919 0009637 226.9527 133.0549 15.27104848386412", "object_type": "PAYLOAD", "criticality_score": 9.0, "last_updated": "2026-06-13T11:16:06.819600+00:00", "maneuver_count": 0, "owner": "PRC"}, "341": {"norad_id": "44882", "name": "OBJECT D", "tle1": "1 44882U 19093D   26163.86494587  .00007121  00000-0  50264-3 0  9998", "tle2": "2 44882  97.7943 258.6133 0014407  43.4309 316.8049 15.05179525351969", "object_type": "PAYLOAD", "criticality_score": 9.0, "last_updated": "2026-06-13T11:16:06.819600+00:00", "maneuver_count": 0, "owner": "PRC"}, "410": {"norad_id": "44703", "name": "GAOFEN 7", "tle1": "1 44703U 19072A   26163.85836359  .00004350  00000-0  19515-3 0  9998", "tle2": "2 44703  97.2435 225.4878 0017746  55.0795 305.2106 15.21570086366986", "object_type": "PAYLOAD", "criticality_score": 9.0, "last_updated": "2026-06-13T11:16:06.819600+00:00", "maneuver_count": 0, "owner": "PRC"}, "412": {"norad_id": "44779", "name": "NINGXIA-1 1", "tle1": "1 44779U 19076A   26163.26478985 -.00000085  00000-0  29277-4 0  9996", "tle2": "2 44779  45.0037 201.8497 0010358 139.2900 220.8710 14.02037642337163", "object_type": "PAYLOAD", "criticality_score": 9.0, "last_updated": "2026-06-13T11:16:06.819600+00:00", "maneuver_count": 0, "owner": "PRC"}, "435": {"norad_id": "44785", "name": "KL-ALPHA A", "tle1": "1 44785U 19077A   26163.84051645 -.00000054  00000-0 -95327-4 0  9994", "tle2": "2 44785  88.9258 223.0398 0013081 116.5660 243.6836 13.56042153325142", "object_type": "PAYLOAD", "criticality_score": 9.0, "last_updated": "2026-06-13T11:16:06.819600+00:00", "maneuver_count": 0, "owner": "GER"}, "485": {"norad_id": "44879", "name": "OBJECT A", "tle1": "1 44879U 19093A   26163.80687625  .00001244  00000-0  11774-3 0  9998", "tle2": "2 44879  97.7814 247.6790 0012651  70.3339 289.9245 14.95415858351395", "object_type": "PAYLOAD", "criticality_score": 9.0, "last_updated": "2026-06-13T11:16:06.819600+00:00", "maneuver_count": 0, "owner": "PRC"}, "488": {"norad_id": "44880", "name": "OBJECT B", "tle1": "1 44880U 19093B   26163.81495366  .00002640  00000-0  24124-3 0  9994", "tle2": "2 44880  97.7824 248.1420 0012565  70.3203 289.9373 14.95843147351408", "object_type": "PAYLOAD", "criticality_score": 9.0, "last_updated": "2026-06-13T11:16:06.819600+00:00", "maneuver_count": 0, "owner": "ETH"}, "500": {"norad_id": "44538", "name": "ZHUHAI-1 03D", "tle1": "1 44538U 19060E   26163.89733881  .00030319  00000-0  55027-3 0  9993", "tle2": "2 44538  97.5381 313.5908 0006703 318.4349  41.6391 15.49516601375418", "object_type": "PAYLOAD", "criticality_score": 9.0, "last_updated": "2026-06-13T11:16:06.819600+00:00", "maneuver_count": 0, "owner": "PRC"}, "504": {"norad_id": "44836", "name": "JILIN-01 GAOFEN 2B", "tle1": "1 44836U 19086A   26163.80430573  .00006396  00000-0  29377-3 0  9992", "tle2": "2 44836  97.4889 235.8225 0013209 340.8438  19.2299 15.20665244359828", "object_type": "PAYLOAD", "criticality_score": 9.0, "last_updated": "2026-06-13T11:16:06.819600+00:00", "maneuver_count": 0, "owner": "PRC"}, "505": {"norad_id": "44777", "name": "JILIN-01 GAOFEN 2A", "tle1": "1 44777U 19075A   26163.84455076  .00014016  00000-0  36227-3 0  9993", "tle2": "2 44777  97.4972 247.5330 0007594 100.2324 259.9778 15.39198484364215", "object_type": "PAYLOAD", "criticality_score": 9.0, "last_updated": "2026-06-13T11:16:06.819600+00:00", "maneuver_count": 0, "owner": "PRC"}, "511": {"norad_id": "44528", "name": "ZY-1 02D", "tle1": "1 44528U 19059A   26163.88706169 -.00000086  00000-0 -15239-4 0  9990", "tle2": "2 44528  98.3195 225.5238 0002338 112.9114 247.2319 14.35457585353727", "object_type": "PAYLOAD", "criticality_score": 9.0, "last_updated": "2026-06-13T11:16:06.819600+00:00", "maneuver_count": 0, "owner": "PRC"}, "528": {"norad_id": "44536", "name": "ZHUHAI-1 03B", "tle1": "1 44536U 19060C   26163.80460615  .00032515  00000-0  50528-3 0  9995", "tle2": "2 44536  97.5517 321.3344 0007672 335.8187  24.2705 15.53856884375643", "object_type": "PAYLOAD", "criticality_score": 9.0, "last_updated": "2026-06-13T11:16:06.819600+00:00", "maneuver_count": 0, "owner": "PRC"}, "570": {"norad_id": "44421", "name": "COSMOS 2535", "tle1": "1 44421U 19039A   26163.84998803  .00000893  00000-0  93540-4 0  9999", "tle2": "2 44421  97.5767 192.1797 0007207 218.3675 141.7032 14.91934564375999", "object_type": "PAYLOAD", "criticality_score": 9.0, "last_updated": "2026-06-13T11:16:06.819600+00:00", "maneuver_count": 0, "owner": "CIS"}, "624": {"norad_id": "44539", "name": "ZHUHAI-1 03E", "tle1": "1 44539U 19060F   26163.89290595  .00018334  00000-0  44698-3 0  9999", "tle2": "2 44539  97.5600 313.6919 0006275  47.5723 312.6053 15.40933452375106", "object_type": "PAYLOAD", "criticality_score": 9.0, "last_updated": "2026-06-13T11:16:06.819600+00:00", "maneuver_count": 0, "owner": "PRC"}, "630": {"norad_id": "44783", "name": "NINGXIA-1 5", "tle1": "1 44783U 19076E   26163.77703846 -.00000270  00000-0 -91042-4 0  9990", "tle2": "2 44783  45.0041 198.9036 0009881 130.6375 229.5320 14.02084717337155", "object_type": "PAYLOAD", "criticality_score": 9.0, "last_updated": "2026-06-13T11:16:06.819600+00:00", "maneuver_count": 0, "owner": "PRC"}, "648": {"norad_id": "44340", "name": "NPSAT1", "tle1": "1 44340U 19036B   26162.56825083  .00004601  00000-0  63983-3 0  9991", "tle2": "2 44340  23.9993 254.3571 0007737 142.5746 217.5289 14.74532298371664", "object_type": "PAYLOAD", "criticality_score": 9.0, "last_updated": "2026-06-13T11:16:06.819600+00:00", "maneuver_count": 0, "owner": "US"}}}