OBJECT_NAME,OBJECT_ID,EPOCH,MEAN_MOTION,ECCENTRICITY,INCLINATION,RA_OF_ASC_NODE,ARG_OF_PERICENTER,MEAN_ANOMALY,EPHEMERIS_TYPE,CLASSIFICATION_TYPE,NORAD_CAT_ID,ELEMENT_SET_NO,REV_AT_EPOCH,BSTAR,MEAN_MOTION_DOT,MEAN_MOTION_DDOT
WT 1B,2019-032G,2026-06-12T19:36:16.566624,15.27104848,.0009637,44.9723,84.7919,226.9527,133.0549,0,U,44316,999,38641,.41947E-3,.11095E-3,0
PROX-1,2019-036A,2026-06-11T15:14:00.889728,14.90479846,.00053693,23.9924,151.3410,331.4108,28.6097,0,U,44339,999,37264,.11914242E-2,.12207E-3,0
NPSAT1,2019-036B,2026-06-11T13:38:16.871712,14.74532298,.0007737,23.9993,254.3571,142.5746,217.5289,0,U,44340,999,37166,.63983E-3,.4601E-4,0
FORMOSAT 7-3,2019-036E,2026-06-12T19:43:32.700000,15.09774393,.0000559,23.9978,208.5879,183.9133,176.1366,0,U,44343,999,38258,.2349E-3,.4239E-4,0
FORMOSAT 7-1,2019-036L,2026-06-11T10:42:12.449088,14.96480132,.0000999,23.9984,71.0959,106.0435,254.0176,0,U,44349,999,38379,.16902E-3,.2269E-4,0
FORMOSAT 7-4,2019-036M,2026-06-12T04:50:43.476576,14.96478445,.00014277,23.9972,128.1073,125.9789,234.0845,0,U,44350,999,38332,.19447147E-3,.2565E-4,0
FORMOSAT 7-2,2019-036N,2026-06-10T18:10:31.196064,14.96473915,.00010217,23.9969,192.1641,105.9152,254.1461,0,U,44351,999,38262,.15417489E-3,.2096E-4,0
FORMOSAT 7-6,2019-036Q,2026-06-12T05:22:37.067232,14.96490671,.00013347,23.9994,3.0891,49.0665,310.9951,0,U,44353,999,38107,.21528161E-3,.2808E-4,0
FORMOSAT 7-5,2019-036V,2026-06-12T01:37:51.998880,14.96496673,.00006946,23.9991,302.8946,95.1246,264.9334,0,U,44358,999,38158,.18840335E-3,.2495E-4,0
METEOR-M2 2,2019-038A,2026-06-12T21:20:45.011040,14.24363912,.0002181,98.9139,151.1109,54.8911,305.2471,0,U,44387,999,36068,-.60749E-4,-.186E-5,0
COSMOS 2535,2019-039A,2026-06-12T20:23:58.965792,14.91934564,.0007207,97.5767,192.1797,218.3675,141.7032,0,U,44421,999,37599,.9354E-4,.893E-5,0
GLOBAL-4,2019-054E,2026-06-11T14:03:09.019584,15.63869122,.0006454,45.0063,268.7103,304.2226,55.8059,0,U,44499,999,37948,.51261E-3,.49298E-3,0
ZY-1 02D,2019-059A,2026-06-12T21:17:22.130016,14.35457585,.0002338,98.3195,225.5238,112.9114,247.2319,0,U,44528,999,35372,-.15239E-4,-.86E-6,0
TAURUS-1 (JINNIUZUO 1),2019-059C,2026-06-12T21:25:19.850304,14.72056763,.0007614,98.6406,328.4547,331.7865,28.2927,0,U,44530,999,35801,.11198E-2,.699E-4,0
ZHUHAI-1 03B,2019-060C,2026-06-12T19:18:37.971360,15.53856884,.0007672,97.5517,321.3344,335.8187,24.2705,0,U,44536,999,37564,.50528E-3,.32515E-3,0
ZHUHAI-1 03D,2019-060E,2026-06-12T21:32:10.073184,15.49516601,.0006703,97.5381,313.5908,318.4349,41.6391,0,U,44538,999,37541,.55027E-3,.30319E-3,0
ZHUHAI-1 03E,2019-060F,2026-06-12T21:25:47.074080,15.40933452,.0006275,97.5600,313.6919,47.5723,312.6053,0,U,44539,999,37510,.44698E-3,.18334E-3,0
ATLAS 5 CENTAUR DEB,2018-079BG,2026-06-11T15:07:19.210080,1.77426584,.47222204,13.6170,39.7318,298.3338,22.1971,0,U,44694,999,4646,0,-.61E-6,0
GAOFEN-7,2019-072A,2026-06-12T20:36:02.614176,15.21570086,.0017746,97.2435,225.4878,55.0795,305.2106,0,U,44703,999,36698,.19515E-3,.435E-4,0
JILIN-1 GAOFEN 2A,2019-075A,2026-06-12T20:16:09.185664,15.39198484,.0007594,97.4972,247.5330,100.2324,259.9778,0,U,44777,999,36421,.36227E-3,.14016E-3,0
NINGXIA-1 1,2019-076A,2026-06-12T06:21:17.843040,14.02037642,.00103582,45.0037,201.8497,139.2900,220.8710,0,U,44779,999,33716,.29277117E-4,-.85E-6,0
NINGXIA-1 5,2019-076E,2026-06-12T18:38:56.122944,14.02084717,.0009881,45.0041,198.9036,130.6375,229.5320,0,U,44783,999,33715,-.91042E-4,-.27E-5,0
KL-ALPHA A,2019-077A,2026-06-12T20:10:20.621280,13.56042153,.0013081,88.9258,223.0398,116.5660,243.6836,0,U,44785,999,32514,-.95327E-4,-.54E-6,0
CARTOSAT-3,2019-081A,2026-06-12T19:26:54.728160,15.19249922,.0012783,97.4313,225.7472,162.4616,197.7063,0,U,44804,999,36280,.15426E-3,.3189E-4,0
JILIN-1 GAOFEN 2B,2019-086A,2026-06-12T19:18:12.015072,15.20665244,.0013209,97.4889,235.8225,340.8438,19.2299,0,U,44836,999,35982,.29377E-3,.6396E-4,0
TIANQIN 1 (CAS-6),2019-093A,2026-06-12T19:21:54.108000,14.95415858,.0012651,97.7814,247.6790,70.3339,289.9245,0,U,44879,999,35139,.11774E-3,.1244E-4,0
ETRSS-1,2019-093B,2026-06-12T19:33:31.996224,14.95843147,.0012565,97.7824,248.1420,70.3203,289.9373,0,U,44880,999,35140,.24124E-3,.264E-4,0
TIANYAN 01,2019-093C,2026-06-12T19:17:49.830144,14.86510113,.0014972,97.7533,236.1427,99.7681,260.5226,0,U,44881,999,35076,.44917E-4,.345E-5,0
TIANYAN 02,2019-093D,2026-06-12T20:45:31.323168,15.05179525,.0014407,97.7943,258.6133,43.4309,316.8049,0,U,44882,999,35196,.50264E-3,.7121E-4,0
